IRIDIUM 150             
1 43257U 18030J   24117.67096509  .00000816  00000+0  28446-3 0  9991
2 43257  86.3949 257.0399 0001847  85.2470 274.8937 14.34217646318148
IRIDIUM 143             
1 43258U 18030K   24118.14031571  .00000650  00000+0  22500-3 0  9994
2 43258  86.3953 256.9057 0001641  90.6793 269.4591 14.34219061318175
IRIDIUM 161             
1 43478U 18047C   24118.36509017  .00001340  00000+0  39243-3 0  9994
2 43478  86.4507  54.7819 0002320  87.1969 272.9498 14.43278687312512
IRIDIUM 152             
1 43479U 18047D   24117.55488789  .00000883  00000+0  30827-3 0  9997
2 43479  86.3981  54.9800 0002232  83.1189 277.0261 14.34219519310467
IRIDIUM 147             
1 43480U 18047E   24117.56121543  .00000488  00000+0  16733-3 0  9993
2 43480  86.3984  54.9679 0002415  84.9803 275.1669 14.34214843310456
IRIDIUM 110             
1 43481U 18047F   24117.91641299  .00000731  00000+0  25391-3 0  9999
2 43481  86.3985  54.8912 0002661  83.9364 276.2135 14.34218743310498
IRIDIUM 162             
1 43482U 18047G   24118.35878611  .00001352  00000+0  39588-3 0  9992
2 43482  86.4506  54.6851 0002406  87.1417 273.0059 14.43281599312504
IRIDIUM 160             
1 43569U 18061A   24118.14132706  .00000929  00000+0  32462-3 0  9992
2 43569  86.4020  23.1784 0002426  92.8743 267.2731 14.34218812301423
